ONEWEB-0349             
1 49281U 21090C   26188.22775166  .00000032  00000+0  47295-4 0  9992
2 49281  87.9192 270.4486 0002126 100.6223 259.5150 13.20773804232478
ONEWEB-0353             
1 49282U 21090D   26188.22968363 -.00000134  00000+0 -39650-3 0  9996
2 49282  87.8972 285.7113 0001858 106.9745 253.1588 13.14502306230214
ONEWEB-0356             
1 49283U 21090E   26187.69577512 -.00000004  00000+0 -42616-4 0  9992
2 49283  87.9191 270.5473 0001419  81.1538 278.9756 13.20770062232405
ONEWEB-0358             
1 49284U 21090F   26187.65608215  .00000037  00000+0  59455-4 0  9997
2 49284  87.9193 270.5627 0002019  94.8364 265.3000 13.20777683233122
ONEWEB-0359             
1 49285U 21090G   26188.17724514  .00000068  00000+0  13542-3 0  9997
2 49285  87.9193 270.4513 0002202  92.8471 267.2915 13.20769815233176
ONEWEB-0360             
1 49286U 21090H   26188.16716892  .00000091  00000+0  19094-3 0  9991
2 49286  87.9192 270.4595 0002163  99.1819 260.9559 13.20770812232484
ONEWEB-0361             
1 49287U 21090J   26187.69410139 -.00000033  00000+0 -11356-3 0  9995
2 49287  87.9195 270.5523 0002087  95.3050 264.8322 13.20772110232877
ONEWEB-0362             
1 49288U 21090K   26187.35888264  .00000066  00000+0  13353-3 0  9990
2 49288  87.9184 301.1596 0002186 104.2013 255.9363 13.19725439229441
ONEWEB-0363             
1 49289U 21090L   26187.70925763  .00000038  00000+0  62744-4 0  9994
2 49289  87.9192 270.5495 0001825  91.7957 268.3385 13.20771936232883
ONEWEB-0364             
1 49290U 21090M   26187.67220010 -.00000620  00000+0 -15563-2 0  9999
2 49290  87.9191 270.5647 0002057  99.9522 260.1844 13.20773417234012
ONEWEB-0365             
1 49291U 21090N   26188.27816024  .00000058  00000+0  11344-3 0  9990
2 49291  87.9192 300.9664 0002001 102.9963 257.1393 13.19725866229072
ONEWEB-0366             
1 49292U 21090P   26188.22651470 -.00000156  00000+0 -45648-3 0  9993
2 49292  87.8973 285.7138 0002020  99.6919 260.4439 13.14501977230192
ONEWEB-0367             
1 49293U 21090Q   26188.16295697  .00000077  00000+0  15721-3 0  9991
2 49293  87.9193 270.4606 0002157 103.5270 256.6104 13.20773130232462
ONEWEB-0368             
1 49294U 21090R   26188.21262334  .00000027  00000+0  33402-4 0  9992
2 49294  87.9181 270.4587 0001394 110.4464 249.6819 13.20771187233626
ONEWEB-0369             
1 49295U 21090S   26188.27342275  .00000054  00000+0  10168-3 0  9995
2 49295  87.9185 300.9731 0001916 102.6649 257.4698 13.19726077229060
ONEWEB-0370             
1 49296U 21090T   26187.71767714  .00000078  00000+0  16057-3 0  9992
2 49296  87.9193 270.5486 0002469  96.2337 263.9078 13.20771600232449
