{"fetched_at":"2026-07-07T18:29:06.539Z","source":"https://celestrak.org/NORAD/elements/gp.php?GROUP=oneweb&FORMAT=JSON","constellation":"oneweb","records":[{"OBJECT_NAME":"ONEWEB-0349","OBJECT_ID":"2021-090C","EPOCH":"2026-07-07T05:27:57.743424","CLASSIFICATION_TYPE":"U","MEAN_MOTION":13.20773804,"ECCENTRICITY":0.0002126,"INCLINATION":87.9192,"RA_OF_ASC_NODE":270.4486,"ARG_OF_PERICENTER":100.6223,"MEAN_ANOMALY":259.515,"EPHEMERIS_TYPE":0,"NORAD_CAT_ID":49281,"ELEMENT_SET_NO":999,"REV_AT_EPOCH":23247,"BSTAR":0.000047295,"MEAN_MOTION_DOT":3.2e-7,"MEAN_MOTION_DDOT":0},{"OBJECT_NAME":"ONEWEB-0353","OBJECT_ID":"2021-090D","EPOCH":"2026-07-07T05:30:44.665632","CLASSIFICATION_TYPE":"U","MEAN_MOTION":13.14502306,"ECCENTRICITY":0.0001858,"INCLINATION":87.8972,"RA_OF_ASC_NODE":285.7113,"ARG_OF_PERICENTER":106.9745,"MEAN_ANOMALY":253.1588,"EPHEMERIS_TYPE":0,"NORAD_CAT_ID":49282,"ELEMENT_SET_NO":999,"REV_AT_EPOCH":23021,"BSTAR":-0.0003965,"MEAN_MOTION_DOT":-0.00000134,"MEAN_MOTION_DDOT":0},{"OBJECT_NAME":"ONEWEB-0356","OBJECT_ID":"2021-090E","EPOCH":"2026-07-06T16:41:54.970368","CLASSIFICATION_TYPE":"U","MEAN_MOTION":13.20770062,"ECCENTRICITY":0.0001419,"INCLINATION":87.9191,"RA_OF_ASC_NODE":270.5473,"ARG_OF_PERICENTER":81.1538,"MEAN_ANOMALY":278.9756,"EPHEMERIS_TYPE":0,"NORAD_CAT_ID":49283,"ELEMENT_SET_NO":999,"REV_AT_EPOCH":23240,"BSTAR":-0.000042616,"MEAN_MOTION_DOT":-4e-8,"MEAN_MOTION_DDOT":0},{"OBJECT_NAME":"ONEWEB-0358","OBJECT_ID":"2021-090F","EPOCH":"2026-07-06T15:44:45.497760","CLASSIFICATION_TYPE":"U","MEAN_MOTION":13.20777683,"ECCENTRICITY":0.0002019,"INCLINATION":87.9193,"RA_OF_ASC_NODE":270.5627,"ARG_OF_PERICENTER":94.8364,"MEAN_ANOMALY":265.3,"EPHEMERIS_TYPE":0,"NORAD_CAT_ID":49284,"ELEMENT_SET_NO":999,"REV_AT_EPOCH":23312,"BSTAR":0.000059455,"MEAN_MOTION_DOT":3.7e-7,"MEAN_MOTION_DDOT":0},{"OBJECT_NAME":"ONEWEB-0359","OBJECT_ID":"2021-090G","EPOCH":"2026-07-07T04:15:13.980096","CLASSIFICATION_TYPE":"U","MEAN_MOTION":13.20769815,"ECCENTRICITY":0.0002202,"INCLINATION":87.9193,"RA_OF_ASC_NODE":270.4513,"ARG_OF_PERICENTER":92.8471,"MEAN_ANOMALY":267.2915,"EPHEMERIS_TYPE":0,"NORAD_CAT_ID":49285,"ELEMENT_SET_NO":999,"REV_AT_EPOCH":23317,"BSTAR":0.00013542,"MEAN_MOTION_DOT":6.8e-7,"MEAN_MOTION_DDOT":0},{"OBJECT_NAME":"ONEWEB-0360","OBJECT_ID":"2021-090H","EPOCH":"2026-07-07T04:00:43.394688","CLASSIFICATION_TYPE":"U","MEAN_MOTION":13.20770812,"ECCENTRICITY":0.0002163,"INCLINATION":87.9192,"RA_OF_ASC_NODE":270.4595,"ARG_OF_PERICENTER":99.1819,"MEAN_ANOMALY":260.9559,"EPHEMERIS_TYPE":0,"NORAD_CAT_ID":49286,"ELEMENT_SET_NO":999,"REV_AT_EPOCH":23248,"BSTAR":0.00019094,"MEAN_MOTION_DOT":9.1e-7,"MEAN_MOTION_DDOT":0},{"OBJECT_NAME":"ONEWEB-0361","OBJECT_ID":"2021-090J","EPOCH":"2026-07-06T16:39:30.360096","CLASSIFICATION_TYPE":"U","MEAN_MOTION":13.2077211,"ECCENTRICITY":0.0002087,"INCLINATION":87.9195,"RA_OF_ASC_NODE":270.5523,"ARG_OF_PERICENTER":95.305,"MEAN_ANOMALY":264.8322,"EPHEMERIS_TYPE":0,"NORAD_CAT_ID":49287,"ELEMENT_SET_NO":999,"REV_AT_EPOCH":23287,"BSTAR":-0.00011356,"MEAN_MOTION_DOT":-3.3e-7,"MEAN_MOTION_DDOT":0},{"OBJECT_NAME":"ONEWEB-0362","OBJECT_ID":"2021-090K","EPOCH":"2026-07-06T08:36:47.460096","CLASSIFICATION_TYPE":"U","MEAN_MOTION":13.19725439,"ECCENTRICITY":0.00021868,"INCLINATION":87.9184,"RA_OF_ASC_NODE":301.1596,"ARG_OF_PERICENTER":104.2013,"MEAN_ANOMALY":255.9363,"EPHEMERIS_TYPE":0,"NORAD_CAT_ID":49288,"ELEMENT_SET_NO":999,"REV_AT_EPOCH":22944,"BSTAR":0.0001335317,"MEAN_MOTION_DOT":6.6e-7,"MEAN_MOTION_DDOT":0},{"OBJECT_NAME":"ONEWEB-0363","OBJECT_ID":"2021-090L","EPOCH":"2026-07-06T17:01:19.859232","CLASSIFICATION_TYPE":"U","MEAN_MOTION":13.20771936,"ECCENTRICITY":0.0001825,"INCLINATION":87.9192,"RA_OF_ASC_NODE":270.5495,"ARG_OF_PERICENTER":91.7957,"MEAN_ANOMALY":268.3385,"EPHEMERIS_TYPE":0,"NORAD_CAT_ID":49289,"ELEMENT_SET_NO":999,"REV_AT_EPOCH":23288,"BSTAR":0.000062744,"MEAN_MOTION_DOT":3.8e-7,"MEAN_MOTION_DDOT":0},{"OBJECT_NAME":"ONEWEB-0364","OBJECT_ID":"2021-090M","EPOCH":"2026-07-06T16:07:58.088640","CLASSIFICATION_TYPE":"U","MEAN_MOTION":13.20773417,"ECCENTRICITY":0.0002057,"INCLINATION":87.9191,"RA_OF_ASC_NODE":270.5647,"ARG_OF_PERICENTER":99.9522,"MEAN_ANOMALY":260.1844,"EPHEMERIS_TYPE":0,"NORAD_CAT_ID":49290,"ELEMENT_SET_NO":999,"REV_AT_EPOCH":23401,"BSTAR":-0.0015563,"MEAN_MOTION_DOT":-0.0000062,"MEAN_MOTION_DDOT":0},{"OBJECT_NAME":"ONEWEB-0365","OBJECT_ID":"2021-090N","EPOCH":"2026-07-07T06:40:33.044736","CLASSIFICATION_TYPE":"U","MEAN_MOTION":13.19725866,"ECCENTRICITY":0.0002001,"INCLINATION":87.9192,"RA_OF_ASC_NODE":300.9664,"ARG_OF_PERICENTER":102.9963,"MEAN_ANOMALY":257.1393,"EPHEMERIS_TYPE":0,"NORAD_CAT_ID":49291,"ELEMENT_SET_NO":999,"REV_AT_EPOCH":22907,"BSTAR":0.00011344,"MEAN_MOTION_DOT":5.8e-7,"MEAN_MOTION_DDOT":0},{"OBJECT_NAME":"ONEWEB-0366","OBJECT_ID":"2021-090P","EPOCH":"2026-07-07T05:26:10.870080","CLASSIFICATION_TYPE":"U","MEAN_MOTION":13.14501977,"ECCENTRICITY":0.000202,"INCLINATION":87.8973,"RA_OF_ASC_NODE":285.7138,"ARG_OF_PERICENTER":99.6919,"MEAN_ANOMALY":260.4439,"EPHEMERIS_TYPE":0,"NORAD_CAT_ID":49292,"ELEMENT_SET_NO":999,"REV_AT_EPOCH":23019,"BSTAR":-0.00045648,"MEAN_MOTION_DOT":-0.00000156,"MEAN_MOTION_DDOT":0},{"OBJECT_NAME":"ONEWEB-0367","OBJECT_ID":"2021-090Q","EPOCH":"2026-07-07T03:54:39.482208","CLASSIFICATION_TYPE":"U","MEAN_MOTION":13.2077313,"ECCENTRICITY":0.0002157,"INCLINATION":87.9193,"RA_OF_ASC_NODE":270.4606,"ARG_OF_PERICENTER":103.527,"MEAN_ANOMALY":256.6104,"EPHEMERIS_TYPE":0,"NORAD_CAT_ID":49293,"ELEMENT_SET_NO":999,"REV_AT_EPOCH":23246,"BSTAR":0.00015721,"MEAN_MOTION_DOT":7.7e-7,"MEAN_MOTION_DDOT":0},{"OBJECT_NAME":"ONEWEB-0368","OBJECT_ID":"2021-090R","EPOCH":"2026-07-07T05:06:10.656576","CLASSIFICATION_TYPE":"U","MEAN_MOTION":13.20771187,"ECCENTRICITY":0.0001394,"INCLINATION":87.9181,"RA_OF_ASC_NODE":270.4587,"ARG_OF_PERICENTER":110.4464,"MEAN_ANOMALY":249.6819,"EPHEMERIS_TYPE":0,"NORAD_CAT_ID":49294,"ELEMENT_SET_NO":999,"REV_AT_EPOCH":23362,"BSTAR":0.000033402,"MEAN_MOTION_DOT":2.7e-7,"MEAN_MOTION_DDOT":0},{"OBJECT_NAME":"ONEWEB-0369","OBJECT_ID":"2021-090S","EPOCH":"2026-07-07T06:33:43.725600","CLASSIFICATION_TYPE":"U","MEAN_MOTION":13.19726077,"ECCENTRICITY":0.0001916,"INCLINATION":87.9185,"RA_OF_ASC_NODE":300.9731,"ARG_OF_PERICENTER":102.6649,"MEAN_ANOMALY":257.4698,"EPHEMERIS_TYPE":0,"NORAD_CAT_ID":49295,"ELEMENT_SET_NO":999,"REV_AT_EPOCH":22906,"BSTAR":0.00010168,"MEAN_MOTION_DOT":5.4e-7,"MEAN_MOTION_DDOT":0},{"OBJECT_NAME":"ONEWEB-0370","OBJECT_ID":"2021-090T","EPOCH":"2026-07-06T17:13:27.304896","CLASSIFICATION_TYPE":"U","MEAN_MOTION":13.207716,"ECCENTRICITY":0.0002469,"INCLINATION":87.9193,"RA_OF_ASC_NODE":270.5486,"ARG_OF_PERICENTER":96.2337,"MEAN_ANOMALY":263.9078,"EPHEMERIS_TYPE":0,"NORAD_CAT_ID":49296,"ELEMENT_SET_NO":999,"REV_AT_EPOCH":23244,"BSTAR":0.00016057,"MEAN_MOTION_DOT":7.8e-7,"MEAN_MOTION_DDOT":0}]}
